NORAD_CAT_ID,OBJECT_NAME,OBJECT_TYPE,EPOCH,MEAN_MOTION,ECCENTRICITY,INCLINATION,RA_OF_ASC_NODE,ARG_OF_PERICENTER,MEAN_ANOMALY,BSTAR,MEAN_MOTION_DOT,MEAN_MOTION_DDOT,TLE_LINE0,TLE_LINE1,TLE_LINE2,SEMIMAJOR_AXIS,PERIOD,APOGEE,PERIGEE,DECAYED
54800.0,STARLINK-5428,PAYLOAD,2024-08-09 09:59:30,15.08853409,0.000176,53.2158,105.3752,88.6304,271.489,0.00099165,0.00015535,0.0,0 STARLINK-5428,1 54800U 22175AU  24222.41633073  .00015535  00000-0  99165-3 0  9995,2 54800  53.2158 105.3752 0001760  88.6304 271.4890 15.08853409 90765,6917.839,95.437,540.922,538.487,0.0
54800.0,STARLINK-5428,PAYLOAD,2024-08-09 21:07:13,15.08840691,0.000165,53.2155,103.2924,111.1976,248.9192,0.0010367,0.0001625,0.0,0 STARLINK-5428,1 54800U 22175AU  24222.88001159  .00016250  00000-0  10367-2 0  9991,2 54800  53.2155 103.2924 0001650 111.1976 248.9192 15.08840691 90836,6917.878,95.438,540.885,538.602,0.0
54800.0,STARLINK-5428,PAYLOAD,2024-08-10 01:53:22,15.08854562,0.0001814,53.2158,102.3992,124.5739,235.5424,0.0018436,0.00029187,0.0,0 STARLINK-5428,1 54800U 22175AU  24223.07873023  .00029187  00000-0  18436-2 0  9998,2 54800  53.2158 102.3992 0001814 124.5739 235.5424 15.08854562 90866,6917.836,95.437,540.956,538.446,0.0
54800.0,STARLINK-5428,PAYLOAD,2024-08-10 20:58:00,15.08845793,0.0001455,53.2163,98.8318,113.8391,246.2754,0.00074664,0.00011617,0.0,0 STARLINK-5428,1 54800U 22175AU  24223.87361518  .00011617  00000-0  74664-3 0  9992,2 54800  53.2163  98.8318 0001455 113.8391 246.2754 15.08845793 90983,6917.863,95.437,540.734,538.721,0.0
54800.0,STARLINK-5428,PAYLOAD,2024-08-10 22:33:23,15.08854316,0.0001506,53.2166,98.5342,114.3113,245.8037,0.0010359,0.00016243,0.0,0 STARLINK-5428,1 54800U 22175AU  24223.93985402  .00016243  00000-0  10359-2 0  9993,2 54800  53.2166  98.5342 0001506 114.3113 245.8037 15.08854316 93146,6917.837,95.437,540.743,538.66,0.0
54800.0,STARLINK-5428,PAYLOAD,2024-08-11 16:02:38,15.08848729,0.0001319,53.216,95.2623,87.3465,272.7678,0.0021849,0.00034664,0.0,0 STARLINK-5428,1 54800U 22175AU  24224.66849922  .00034664  00000-0  21849-2 0  9993,2 54800  53.2160  95.2623 0001319  87.3465 272.7678 15.08848729 91102,6917.854,95.437,540.631,538.806,0.0
54800.0,STARLINK-5428,PAYLOAD,2024-08-11 22:24:10,15.08863998,0.0001322,53.2169,94.0763,84.5048,275.6095,0.0015833,0.00025017,0.0,0 STARLINK-5428,1 54800U 22175AU  24224.93345541  .00025017  00000-0  15833-2 0  9999,2 54800  53.2169  94.0763 0001322  84.5048 275.6095 15.08863998 93295,6917.807,95.436,540.587,538.758,0.0
54800.0,STARLINK-5428,PAYLOAD,2024-08-12 07:56:29,15.08842833,0.0001302,53.217,92.2871,68.7352,291.3779,0.00040468,6.159e-05,0.0,0 STARLINK-5428,1 54800U 22175AU  24225.33089651  .00006159  00000-0  40468-3 0  9990,2 54800  53.2170  92.2871 0001302  68.7352 291.3779 15.08842833 91205,6917.872,95.437,540.637,538.836,0.0
54800.0,STARLINK-5428,PAYLOAD,2024-08-12 20:39:33,15.08876902,0.0001075,53.2161,89.9086,80.3842,279.7271,0.0018777,0.00029752,0.0,0 STARLINK-5428,1 54800U 22175AU  24225.86080765  .00029752  00000-0  18777-2 0  9996,2 54800  53.2161  89.9086 0001075  80.3842 279.7271 15.08876902 91286,6917.768,95.435,540.376,538.889,0.0
54800.0,STARLINK-5428,PAYLOAD,2024-08-12 23:50:19,15.08903235,0.0001036,53.218,89.3128,79.5606,280.5503,0.0022982,0.00036541,0.0,0 STARLINK-5428,1 54800U 22175AU  24225.99328035  .00036541  00000-0  22982-2 0  9992,2 54800  53.2180  89.3128 0001036  79.5606 280.5503 15.08903235 91304,6917.687,95.434,540.269,538.835,0.0
54800.0,STARLINK-5428,PAYLOAD,2024-08-13 07:47:16,15.08831333,0.000221,53.2165,87.8297,78.8077,281.3163,-0.00026155,-4.448e-05,0.0,0 STARLINK-5428,1 54800U 22175AU  24226.32449373 -.00004448  00000-0 -26155-3 0  9999,2 54800  53.2165  87.8297 0002210  78.8077 281.3163 15.08831333 91351,6917.907,95.438,541.301,538.243,0.0
54800.0,STARLINK-5428,PAYLOAD,2024-08-13 22:05:46,15.08782681,0.000154,53.216,85.1542,84.2371,275.8797,0.00095782,0.00014965,0.0,0 STARLINK-5428,1 54800U 22175AU  24226.92067664  .00014965  00000-0  95782-3 0  9999,2 54800  53.2160  85.1542 0001540  84.2371 275.8797 15.08782681 93593,6918.056,95.441,540.986,538.855,0.0
54800.0,STARLINK-5428,PAYLOAD,2024-08-13 23:41:09,15.08783842,0.0001566,53.2158,84.8564,83.8121,276.305,0.0013588,0.0002137,0.0,0 STARLINK-5428,1 54800U 22175AU  24226.98691923  .00021370  00000-0  13588-2 0  9997,2 54800  53.2158  84.8564 0001566  83.8121 276.3050 15.08783842 91457,6918.052,95.441,541.0,538.834,0.0
54800.0,STARLINK-5428,PAYLOAD,2024-08-14 18:45:47,15.08862724,0.000119,53.2146,81.2888,90.9922,269.1206,0.002342,0.00037205,0.0,0 STARLINK-5428,1 54800U 22175AU  24227.78180084  .00037205  00000-0  23420-2 0  9997,2 54800  53.2146  81.2888 0001190  90.9922 269.1206 15.08862724 91578,6917.811,95.436,540.499,538.853,0.0
54800.0,STARLINK-5428,PAYLOAD,2024-08-14 21:56:33,15.08875416,0.0001228,53.2151,80.6935,88.2605,271.8528,0.0022077,0.00035057,0.0,0 STARLINK-5428,1 54800U 22175AU  24227.91427794  .00035057  00000-0  22077-2 0  9994,2 54800  53.2151  80.6935 0001228  88.2605 271.8528 15.08875416 93740,6917.772,95.435,540.487,538.788,0.0
54800.0,STARLINK-5428,PAYLOAD,2024-08-15 07:28:52,15.08867322,0.0001475,53.2138,78.9107,95.2015,264.9146,0.001435,0.00022641,0.0,0 STARLINK-5428,1 54800U 22175AU  24228.31171308  .00022641  00000-0  14350-2 0  9996,2 54800  53.2138  78.9107 0001475  95.2015 264.9146 15.08867322 93806,6917.797,95.436,540.682,538.642,0.0
54800.0,STARLINK-5428,PAYLOAD,2024-08-15 20:11:56,15.08877687,0.0001403,53.2151,76.5306,102.649,257.4659,0.0020529,0.00032569,0.0,0 STARLINK-5428,1 54800U 22175AU  24228.84162596  .00032569  00000-0  20529-2 0  9998,2 54800  53.2151  76.5306 0001403 102.6490 257.4659 15.08877687 91738,6917.765,95.435,540.601,538.66,0.0
54800.0,STARLINK-5428,PAYLOAD,2024-08-17 03:59:38,15.08858566,0.0001619,53.2132,70.5769,112.8865,247.2298,0.00061096,9.454e-05,0.0,0 STARLINK-5428,1 54800U 22175AU  24230.16641858  .00009454  00000-0  61096-3 0  9991,2 54800  53.2132  70.5769 0001619 112.8865 247.2298 15.08858566 91935,6917.824,95.436,540.809,538.569,0.0
54800.0,STARLINK-5428,PAYLOAD,2024-08-17 13:31:57,15.08827422,5.31e-05,53.2243,68.7987,172.4665,187.6335,-0.00040463,-6.719e-05,0.0,0 STARLINK-5428,1 54800U 22175AU  24230.56386340 -.00006719  00000-0 -40463-3 0  9995,2 54800  53.2243  68.7987 0000531 172.4665 187.6335 15.08827422 91993,6917.919,95.438,540.151,539.416,0.0
54800.0,STARLINK-5428,PAYLOAD,2024-08-18 19:44:17,15.0886087,0.0001278,53.2172,63.1478,77.3125,282.801,0.00091162,0.00014258,0.0,0 STARLINK-5428,1 54800U 22175AU  24231.82242291  .00014258  00000-0  91162-3 0  9998,2 54800  53.2172  63.1478 0001278  77.3125 282.8010 15.08860870 92185,6917.817,95.436,540.566,538.798,0.0
54800.0,STARLINK-5428,PAYLOAD,2024-08-19 05:16:35,15.08859468,0.0001643,53.2182,61.3588,69.3179,290.7989,1.6937e-05,-1.8e-07,0.0,0 STARLINK-5428,1 54800U 22175AU  24232.21986093 -.00000018  00000-0  16937-4 0  9995,2 54800  53.2182  61.3588 0001643  69.3179 290.7989 15.08859468 92245,6917.821,95.436,540.822,538.549,0.0
54800.0,STARLINK-5428,PAYLOAD,2024-08-19 11:38:08,15.0884868,0.0001454,53.2171,60.1758,90.8828,269.2331,-0.00030334,-5.114e-05,0.0,0 STARLINK-5428,1 54800U 22175AU  24232.48482181 -.00005114  00000-0 -30334-3 0  9992,2 54800  53.2171  60.1758 0001454  90.8828 269.2331 15.08848680 94438,6917.854,95.437,540.725,538.713,0.0
54800.0,STARLINK-5428,PAYLOAD,2024-08-20 11:28:56,15.08839706,0.0001565,53.2172,55.7148,84.9976,275.1195,0.00031079,4.662e-05,0.0,0 STARLINK-5428,1 54800U 22175AU  24233.47842629  .00004662  00000-0  31079-3 0  9991,2 54800  53.2172  55.7148 0001565  84.9976 275.1195 15.08839706 94582,6917.881,95.438,540.829,538.664,0.0
54800.0,STARLINK-5428,PAYLOAD,2024-08-20 17:50:28,15.08840522,0.0001376,53.2175,54.5257,89.2048,270.9102,0.00010172,1.331e-05,0.0,0 STARLINK-5428,1 54800U 22175AU  24233.74338549  .00001331  00000-0  10172-3 0  9993,2 54800  53.2175  54.5257 0001376  89.2048 270.9102 15.08840522 92476,6917.879,95.438,540.696,538.792,0.0
54800.0,STARLINK-5428,PAYLOAD,2024-08-21 11:19:43,15.08836509,0.0001355,53.217,51.2547,88.2058,271.9089,0.0001181,1.592e-05,0.0,0 STARLINK-5428,1 54800U 22175AU  24234.47202975  .00001592  00000-0  11810-3 0  9996,2 54800  53.2170  51.2547 0001355  88.2058 271.9089 15.08836509 92581,6917.891,95.438,540.693,538.819,0.0
54800.0,STARLINK-5428,PAYLOAD,2024-08-21 19:16:39,15.08835958,0.0001339,53.2175,49.768,82.1494,277.965,8.5701e-05,1.076e-05,0.0,0 STARLINK-5428,1 54800U 22175AU  24234.80323242  .00001076  00000-0  85701-4 0  9992,2 54800  53.2175  49.7680 0001339  82.1494 277.9650 15.08835958 94786,6917.893,95.438,540.684,538.831,0.0
